{
  "type": "FeatureCollection",
  "features": [
    {
      "type": "Feature",
      "properties": {},
      "geometry": {
        "type": "LineString",
        "coordinates": [
          [
            -1.7263144,
            52.7289191
          ],
          [
            -1.7263924,
            52.728927
          ],
          [
            -1.7267286,
            52.729014
          ],
          [
            -1.7270238,
            52.7291124
          ],
          [
            -1.7269746,
            52.72917
          ],
          [
            -1.7269549,
            52.7292266
          ],
          [
            -1.7269556,
            52.729262
          ],
          [
            -1.7270185,
            52.7293108
          ],
          [
            -1.7271178,
            52.7293648
          ],
          [
            -1.7272137,
            52.7293797
          ],
          [
            -1.7267749,
            52.7296325
          ],
          [
            -1.7267254,
            52.7296273
          ],
          [
            -1.72653,
            52.7296839
          ],
          [
            -1.7264824,
            52.7297021
          ],
          [
            -1.7263849,
            52.7297584
          ],
          [
            -1.7260713,
            52.7299376
          ],
          [
            -1.7258558,
            52.7300612
          ],
          [
            -1.7257263,
            52.7301409
          ],
          [
            -1.7255917,
            52.7302258
          ],
          [
            -1.7254995,
            52.7302874
          ],
          [
            -1.725431,
            52.7303373
          ],
          [
            -1.7253622,
            52.7303647
          ],
          [
            -1.7252624,
            52.7304253
          ],
          [
            -1.7252508,
            52.7304675
          ],
          [
            -1.725222,
            52.7305138
          ],
          [
            -1.7251973,
            52.7305459
          ],
          [
            -1.7251578,
            52.730582
          ],
          [
            -1.7251298,
            52.7306066
          ],
          [
            -1.7251031,
            52.7306204
          ],
          [
            -1.7250595,
            52.7306643
          ],
          [
            -1.7251019,
            52.7306197
          ],
          [
            -1.7251298,
            52.7306066
          ],
          [
            -1.7251576,
            52.7305804
          ],
          [
            -1.7251986,
            52.7305467
          ],
          [
            -1.7252242,
            52.7305123
          ],
          [
            -1.7252483,
            52.730466
          ],
          [
            -1.7252624,
            52.7304253
          ],
          [
            -1.7252521,
            52.7303875
          ],
          [
            -1.7252404,
            52.7303574
          ],
          [
            -1.7252091,
            52.7303177
          ],
          [
            -1.7251669,
            52.7302896
          ],
          [
            -1.7251001,
            52.7302624
          ],
          [
            -1.7249443,
            52.7302148
          ],
          [
            -1.724905,
            52.7302069
          ],
          [
            -1.7247983,
            52.7301968
          ],
          [
            -1.7246547,
            52.7302357
          ],
          [
            -1.7238867,
            52.7306807
          ],
          [
            -1.7232638,
            52.7310291
          ],
          [
            -1.7227122,
            52.7312716
          ],
          [
            -1.7223581,
            52.7314461
          ],
          [
            -1.7221141,
            52.7315899
          ],
          [
            -1.7220133,
            52.7316565
          ],
          [
            -1.7218144,
            52.7317482
          ],
          [
            -1.7216076,
            52.7317948
          ],
          [
            -1.721421,
            52.7318142
          ],
          [
            -1.7202659,
            52.7316865
          ],
          [
            -1.7192195,
            52.7316323
          ],
          [
            -1.7191626,
            52.7316651
          ],
          [
            -1.7191305,
            52.7316979
          ],
          [
            -1.7191158,
            52.7317343
          ],
          [
            -1.7191351,
            52.7317777
          ],
          [
            -1.7191902,
            52.7318158
          ],
          [
            -1.7193173,
            52.7318651
          ],
          [
            -1.7193509,
            52.7318277
          ],
          [
            -1.7199182,
            52.7318572
          ],
          [
            -1.7200116,
            52.7318617
          ],
          [
            -1.7210093,
            52.7319682
          ],
          [
            -1.7214918,
            52.7320234
          ],
          [
            -1.7215905,
            52.7320354
          ],
          [
            -1.7216946,
            52.7320586
          ],
          [
            -1.7217688,
            52.7320701
          ],
          [
            -1.7218526,
            52.7320622
          ],
          [
            -1.721912,
            52.7320322
          ],
          [
            -1.7224922,
            52.7316627
          ],
          [
            -1.7228998,
            52.7313862
          ],
          [
            -1.7232779,
            52.7312495
          ],
          [
            -1.7233869,
            52.7311525
          ],
          [
            -1.7234841,
            52.7311163
          ],
          [
            -1.7236426,
            52.7310761
          ],
          [
            -1.7238966,
            52.7310529
          ],
          [
            -1.7239009,
            52.731025
          ],
          [
            -1.7239162,
            52.7310013
          ],
          [
            -1.7239448,
            52.7309694
          ],
          [
            -1.7240128,
            52.7309138
          ],
          [
            -1.7240115,
            52.7309082
          ],
          [
            -1.724099,
            52.7308492
          ],
          [
            -1.7244266,
            52.7309937
          ],
          [
            -1.7248256,
            52.7311697
          ],
          [
            -1.7251867,
            52.7313182
          ],
          [
            -1.7255129,
            52.7314562
          ],
          [
            -1.7257672,
            52.7315775
          ],
          [
            -1.7258719,
            52.7316285
          ],
          [
            -1.7260811,
            52.731713
          ],
          [
            -1.7262355,
            52.7317748
          ],
          [
            -1.7263691,
            52.7318115
          ],
          [
            -1.7263731,
            52.7318157
          ],
          [
            -1.726249,
            52.7318822
          ],
          [
            -1.7261381,
            52.731998
          ],
          [
            -1.7260579,
            52.7320756
          ],
          [
            -1.7258916,
            52.7322496
          ],
          [
            -1.725793,
            52.732319
          ],
          [
            -1.7256952,
            52.7323739
          ],
          [
            -1.7255015,
            52.7323964
          ],
          [
            -1.7253608,
            52.732428
          ],
          [
            -1.7251618,
            52.7324902
          ],
          [
            -1.7249572,
            52.7325561
          ]
        ]
      }
    }
  ]
}