{
  "type": "FeatureCollection",
  "features": [
    {
      "type": "Feature",
      "properties": {},
      "geometry": {
        "type": "LineString",
        "coordinates": [
          [
            -1.7313535,
            52.7278607
          ],
          [
            -1.7310868,
            52.7280056
          ],
          [
            -1.731092,
            52.7280121
          ],
          [
            -1.7310102,
            52.7280569
          ],
          [
            -1.7309982,
            52.7281874
          ],
          [
            -1.7309492,
            52.7282201
          ],
          [
            -1.7308616,
            52.7282697
          ]
        ]
      }
    },
    {
      "type": "Feature",
      "properties": {},
      "geometry": {
        "type": "LineString",
        "coordinates": [
          [
            -1.7308625,
            52.7282689
          ],
          [
            -1.7307168,
            52.7283374
          ],
          [
            -1.7304711,
            52.728398
          ],
          [
            -1.7305987,
            52.7284722
          ],
          [
            -1.7313492,
            52.7289532
          ],
          [
            -1.7318102,
            52.7292399
          ],
          [
            -1.7320255,
            52.7293792
          ],
          [
            -1.7322976,
            52.7295694
          ],
          [
            -1.7327151,
            52.7290374
          ],
          [
            -1.732947,
            52.7287642
          ],
          [
            -1.7329984,
            52.7287427
          ],
          [
            -1.7330749,
            52.7287294
          ],
          [
            -1.7331366,
            52.7287016
          ],
          [
            -1.7332493,
            52.7286599
          ],
          [
            -1.7333681,
            52.7283815
          ],
          [
            -1.7332492,
            52.7286602
          ],
          [
            -1.7331355,
            52.728703
          ],
          [
            -1.7330755,
            52.7287283
          ],
          [
            -1.7329972,
            52.7287428
          ],
          [
            -1.7329463,
            52.7287636
          ],
          [
            -1.7327145,
            52.7290374
          ],
          [
            -1.732298,
            52.7295691
          ],
          [
            -1.732168,
            52.7297442
          ],
          [
            -1.7320721,
            52.7299113
          ],
          [
            -1.7319813,
            52.7299757
          ],
          [
            -1.7310506,
            52.7294065
          ],
          [
            -1.7308142,
            52.7295617
          ],
          [
            -1.730746,
            52.7296003
          ],
          [
            -1.7307013,
            52.7296196
          ],
          [
            -1.730586,
            52.7296406
          ],
          [
            -1.7305168,
            52.729649
          ],
          [
            -1.7304747,
            52.7296508
          ],
          [
            -1.7304111,
            52.7296362
          ],
          [
            -1.7302971,
            52.7296377
          ],
          [
            -1.7301605,
            52.7296858
          ],
          [
            -1.7301051,
            52.729754
          ],
          [
            -1.7301052,
            52.7298466
          ],
          [
            -1.7301439,
            52.7299721
          ],
          [
            -1.7301251,
            52.730052
          ],
          [
            -1.7300892,
            52.7301164
          ],
          [
            -1.7289346,
            52.7308352
          ],
          [
            -1.7289001,
            52.7308339
          ],
          [
            -1.7288625,
            52.7308463
          ],
          [
            -1.7287822,
            52.7308771
          ],
          [
            -1.7287509,
            52.7308838
          ],
          [
            -1.7287313,
            52.7308823
          ],
          [
            -1.7287218,
            52.7308805
          ],
          [
            -1.7287065,
            52.7308907
          ],
          [
            -1.7269003,
            52.7297974
          ],
          [
            -1.7268933,
            52.7297936
          ],
          [
            -1.7269064,
            52.729557
          ],
          [
            -1.7287219,
            52.7284839
          ],
          [
            -1.7296896,
            52.727918
          ],
          [
            -1.7298495,
            52.7278162
          ],
          [
            -1.7301552,
            52.7276426
          ],
          [
            -1.7303915,
            52.7275079
          ],
          [
            -1.7305591,
            52.7276062
          ],
          [
            -1.7307359,
            52.7277242
          ],
          [
            -1.7307381,
            52.7277244
          ]
        ]
      }
    }
  ]
}